NORAD_CAT_ID,OBJECT_NAME,OBJECT_TYPE,EPOCH,MEAN_MOTION,ECCENTRICITY,INCLINATION,RA_OF_ASC_NODE,ARG_OF_PERICENTER,MEAN_ANOMALY,BSTAR,MEAN_MOTION_DOT,MEAN_MOTION_DDOT,TLE_LINE0,TLE_LINE1,TLE_LINE2,SEMIMAJOR_AXIS,PERIOD,APOGEE,PERIGEE,DECAYED
49164.0,STARLINK-3106,PAYLOAD,2022-04-07 14:00:01,14.96743847,0.000301,69.9993,284.3937,270.398,271.298,-0.002287,-0.00026189,0.0,0 STARLINK-3106,1 49164U 21082AL  22097.58334491 -.00026189  00000-0 -22870-2 0  9993,2 49164  69.9993 284.3937 0003010 270.3980 271.2980 14.96743847  3599,6955.102,96.209,579.061,574.874,0.0
49164.0,STARLINK-3106,PAYLOAD,2022-04-07 20:00:01,14.96717363,0.0003027,69.9991,283.7649,276.1106,172.2687,0.0011234,0.00012791,0.0,0 STARLINK-3106,1 49164U 21082AL  22097.83334491  .00012791  00000-0  11234-2 0  9995,2 49164  69.9991 283.7649 0003027 276.1106 172.2687 14.96717363 33188,6955.184,96.211,579.155,574.944,0.0
49164.0,STARLINK-3106,PAYLOAD,2022-04-07 22:00:00,14.96712208,0.0003042,69.9992,283.5553,277.4615,259.8087,0.0022668,0.00025948,0.0,0 STARLINK-3106,1 49164U 21082AL  22097.91667824  .00025948  00000-0  22668-2 0  9994,2 49164  69.9992 283.5553 0003042 277.4615 259.8087 14.96712208  3587,6955.2,96.211,579.181,574.95,0.0
49164.0,STARLINK-3106,PAYLOAD,2022-04-08 14:00:03,14.96728822,0.0003094,69.9993,281.8783,270.6183,257.8674,-0.0022681,-0.00025964,0.0,0 STARLINK-3106,1 49164U 21082AL  22098.58336806 -.00025964  00000-0 -22681-2 0  9996,2 49164  69.9993 281.8783 0003094 270.6183 257.8674 14.96728822 33308,6955.149,96.21,579.1659999999998,574.862,0.0
49164.0,STARLINK-3106,PAYLOAD,2022-04-08 22:00:00,14.96692509,0.000313,69.9991,281.0399,277.105,246.8137,0.0038401,0.00044114,0.0,0 STARLINK-3106,1 49164U 21082AL  22098.91667824  .00044114  00000-0  38401-2 0  9993,2 49164  69.9991 281.0399 0003130 277.1050 246.8137 14.96692509  3634,6955.261,96.212,579.303,574.9490000000002,0.0
49164.0,STARLINK-3106,PAYLOAD,2022-04-09 14:00:01,14.96737766,0.0003126,69.9991,279.3631,269.9624,245.0255,-0.0025441999999999,-0.00029108,0.0,0 STARLINK-3106,1 49164U 21082AL  22099.58334491 -.00029108  00000-0 -25442-2 0  9997,2 49164  69.9991 279.3631 0003126 269.9624 245.0255 14.96737766 33454,6955.121,96.209,579.16,574.812,0.0
49164.0,STARLINK-3106,PAYLOAD,2022-04-09 22:00:00,14.96700206,0.0003188,69.9989,278.5247,276.0661,234.4904,0.0038022,0.00043684,0.0,0 STARLINK-3106,1 49164U 21082AL  22099.91667824  .00043684  00000-0  38022-2 0  9994,2 49164  69.9989 278.5247 0003188 276.0661 234.4904 14.96700206  3586,6955.236999999999,96.212,579.32,574.885,0.0
49164.0,STARLINK-3106,PAYLOAD,2022-04-10 06:00:02,14.96711788,0.0003185,69.9987,277.6862,271.1534,235.0237,0.0015681,0.00017901,0.0,0 STARLINK-3106,1 49164U 21082AL  22100.25002315  .00017901  00000-0  15681-2 0  9991,2 49164  69.9987 277.6862 0003185 271.1534 235.0237 14.96711788 33552,6955.2019999999975,96.211,579.2819999999998,574.851,0.0
49164.0,STARLINK-3106,PAYLOAD,2022-04-10 14:00:01,14.96764674,0.0003252,69.9989,276.8479,269.6246,232.0316,-0.0066325,-0.0007529,0.0,0 STARLINK-3106,1 49164U 21082AL  22100.58334491 -.00075290  00000-0 -66325-2 0  9998,2 49164  69.9989 276.8479 0003252 269.6246 232.0316 14.96764674  3583,6955.038000000001,96.208,579.165,574.641,0.0
49164.0,STARLINK-3106,PAYLOAD,2022-04-10 22:00:00,14.96688194,0.0003378,69.9987,276.0094,275.2951,221.9457,0.0041388,0.00047571,0.0,0 STARLINK-3106,1 49164U 21082AL  22100.91667824  .00047571  00000-0  41388-2 0  9995,2 49164  69.9987 276.0094 0003378 275.2951 221.9457 14.96688194  3586,6955.275,96.212,579.489,574.79,0.0
49164.0,STARLINK-3106,PAYLOAD,2022-04-11 06:00:00,14.96695075,0.0003364,69.9986,275.1709,270.6881,222.0938,0.0022939,0.00026249,0.0,0 STARLINK-3106,1 49164U 21082AL  22101.25001157  .00026249  00000-0  22939-2 0  9994,2 49164  69.9986 275.1709 0003364 270.6881 222.0938 14.96695075 33703,6955.253000000002,96.212,579.4580000000002,574.779,0.0
49164.0,STARLINK-3106,PAYLOAD,2022-04-11 14:00:01,14.96771076,0.0003377,69.9995,274.338,270.7785,217.5217,-0.0096137,-0.00108594,0.0,0 STARLINK-3106,1 49164U 21082AL  22101.58334491 -.00108594  00000-0 -96137-2 0  9997,2 49164  69.9995 274.3380 0003377 270.7785 217.5217 14.96771076  3585,6955.018,96.207,579.232,574.534,0.0
49164.0,STARLINK-3106,PAYLOAD,2022-04-11 22:00:00,14.96698473,0.0003399,69.9984,273.4942,275.1945,208.6771,0.0038388,0.00044106,0.0,0 STARLINK-3106,1 49164U 21082AL  22101.91667824  .00044106  00000-0  38388-2 0  9993,2 49164  69.9984 273.4942 0003399 275.1945 208.6771 14.96698473  3572,6955.243,96.212,579.472,574.744,0.0
49164.0,STARLINK-3106,PAYLOAD,2022-04-12 06:00:02,14.96701742,0.0003346,69.9984,272.6558,270.4782,209.0107,0.0026549,0.00030418,0.0,0 STARLINK-3106,1 49164U 21082AL  22102.25002315  .00030418  00000-0  26549-2 0  9996,2 49164  69.9984 272.6558 0003346 270.4782 209.0107 14.96701742 33851,6955.233,96.212,579.425,574.77,0.0
49164.0,STARLINK-3106,PAYLOAD,2022-04-12 14:00:01,14.96721714,0.000327,69.9987,271.8176,270.4403,204.4938,-0.0038103,-0.00043441,0.0,0 STARLINK-3106,1 49164U 21082AL  22102.58334491 -.00043441  00000-0 -38103-2 0  9996,2 49164  69.9987 271.8176 0003270 270.4403 204.4938 14.96721714 33905,6955.170999999999,96.21,579.31,574.761,0.0
49164.0,STARLINK-3106,PAYLOAD,2022-04-12 22:00:00,14.96680176,0.0003251,69.9982,270.9791,275.8137,194.6586,0.0033324,0.00038225,0.0,0 STARLINK-3106,1 49164U 21082AL  22102.91667824  .00038225  00000-0  33324-2 0  9994,2 49164  69.9982 270.9791 0003251 275.8137 194.6586 14.96680176  3570,6955.3,96.213,579.4259999999998,574.903,0.0
49164.0,STARLINK-3106,PAYLOAD,2022-04-13 04:00:00,14.96707641,0.0003161,69.9981,270.3503,272.6912,104.4241,-0.0022846,-0.00026138,0.0,0 STARLINK-3106,1 49164U 21082AL  22103.16667824 -.00026138  00000-0 -22846-2 0  9991,2 49164  69.9981 270.3503 0003161 272.6912 104.4241 14.96707641 33982,6955.214,96.211,579.278,574.881,0.0
49164.0,STARLINK-3106,PAYLOAD,2022-04-13 14:00:03,14.96731021,0.0003227,69.9984,269.3022,270.6906,190.9533,-0.0034639,-0.00039531,0.0,0 STARLINK-3106,1 49164U 21082AL  22103.58336806 -.00039531  00000-0 -34639-2 0  9994,2 49164  69.9984 269.3022 0003227 270.6906 190.9533 14.96731021 34055,6955.142,96.21,579.251,574.763,0.0
49164.0,STARLINK-3106,PAYLOAD,2022-04-13 22:00:00,14.96696725,0.0003236,69.9981,268.4637,276.0318,181.039,0.0030465,0.00034936,0.0,0 STARLINK-3106,1 49164U 21082AL  22103.91667824  .00034936  00000-0  30465-2 0  9993,2 49164  69.9981 268.4637 0003236 276.0318 181.0390 14.96696725  3601,6955.248000000001,96.212,579.364,574.863,0.0
49164.0,STARLINK-3106,PAYLOAD,2022-04-14 06:00:00,14.96685343,0.0003199,69.9981,267.6252,270.1205,182.498,0.0039470999999999,0.00045345,0.0,0 STARLINK-3106,1 49164U 21082AL  22104.25001157  .00045345  00000-0  39471-2 0  9994,2 49164  69.9981 267.6252 0003199 270.1205 182.4980 14.96685343 34151,6955.284000000002,96.213,579.374,574.924,0.0
49164.0,STARLINK-3106,PAYLOAD,2022-04-14 14:00:01,14.96739291,0.0003233,69.9984,266.7867,270.3383,177.8035,-0.0035093,-0.00040054,0.0,0 STARLINK-3106,1 49164U 21082AL  22104.58334491 -.00040054  00000-0 -35093-2 0  9990,2 49164  69.9984 266.7867 0003233 270.3383 177.8035 14.96739291  3588,6955.116,96.209,579.23,574.7330000000002,0.0
49164.0,STARLINK-3106,PAYLOAD,2022-04-14 22:00:00,14.967081900000002,0.0003273,69.9982,265.9481,275.2783,168.4252,0.002483,0.00028439,0.0,0 STARLINK-3106,1 49164U 21082AL  22104.91667824  .00028439  00000-0  24830-2 0  9994,2 49164  69.9982 265.9481 0003273 275.2783 168.4252 14.96708190 34249,6955.2130000000025,96.211,579.354,574.8009999999998,0.0
49164.0,STARLINK-3106,PAYLOAD,2022-04-15 13:40:01,14.96721073,0.0003241,69.9973,264.3059,270.9296,89.1491,0.00018684,2.048e-05,0.0,0 STARLINK-3106,1 49164U 21082AL  22105.56946357  .00002048  00000-0  18684-3 0  9996,2 49164  69.9973 264.3059 0003241 270.9296  89.1491 14.96721073 34349,6955.1730000000025,96.21,579.2919999999998,574.784,0.0
49164.0,STARLINK-3106,PAYLOAD,2022-04-15 22:00:00,14.9674429,0.0003283,69.9984,263.4325,274.7679,155.6355,-0.0019773,-0.00022667,0.0,0 STARLINK-3106,1 49164U 21082AL  22105.91667824 -.00022667  00000-0 -19773-2 0  9994,2 49164  69.9984 263.4325 0003283 274.7679 155.6355 14.96744290 34399,6955.101,96.209,579.249,574.683,0.0
49164.0,STARLINK-3106,PAYLOAD,2022-04-16 14:00:01,14.96717336,0.0003134,69.999,261.7554,269.9438,151.5627,-0.0035661,-0.00040674,0.0,0 STARLINK-3106,1 49164U 21082AL  22106.58334491 -.00040674  00000-0 -35661-2 0  9991,2 49164  69.9990 261.7554 0003134 269.9438 151.5627 14.96717336  3580,6955.184,96.211,579.229,574.87,0.0
49164.0,STARLINK-3106,PAYLOAD,2022-04-16 22:00:01,14.96688755,0.000315,69.9988,260.9168,274.6749,142.4213,0.0016809,0.00019187,0.0,0 STARLINK-3106,1 49164U 21082AL  22106.91668981  .00019187  00000-0  16809-2 0  9998,2 49164  69.9988 260.9168 0003150 274.6749 142.4213 14.96688755 34547,6955.273,96.212,579.3290000000002,574.947,0.0
49164.0,STARLINK-3106,PAYLOAD,2022-04-17 14:00:01,14.96726044,0.0003175,69.9995,259.2401,270.3943,137.6843,-0.0035574,-0.00040585,0.0,0 STARLINK-3106,1 49164U 21082AL  22107.58334491 -.00040585  00000-0 -35574-2 0  9996,2 49164  69.9995 259.2401 0003175 270.3943 137.6843 14.96726044  3592,6955.156999999997,96.21,579.231,574.814,0.0
49164.0,STARLINK-3106,PAYLOAD,2022-04-17 22:00:00,14.96707094,0.0003154,69.9992,258.4017,275.032,128.5897,0.0010871,0.0001237,0.0,0 STARLINK-3106,1 49164U 21082AL  22107.91667824  .00012370  00000-0  10871-2 0  9994,2 49164  69.9992 258.4017 0003154 275.0320 128.5897 14.96707094 34698,6955.215999999999,96.211,579.275,574.887,0.0
49164.0,STARLINK-3106,PAYLOAD,2022-04-18 14:00:01,14.9673766,0.0003162,69.9998,256.725,271.1965,123.5061,-0.0030236,-0.00034548,0.0,0 STARLINK-3106,1 49164U 21082AL  22108.58334491 -.00034548  00000-0 -30236-2 0  9999,2 49164  69.9998 256.7250 0003162 271.1965 123.5061 14.96737660  3589,6955.121,96.209,579.186,574.7869999999998,0.0
